ONEWEB-0678             
1 56714U 23068E   23322.64633830 -.00000122  00000+0 -35797-3 0  9997
2 56714  87.8991  86.5923 0001879 111.6154 248.5177 13.15554492 25497
ONEWEB-0679             
1 56715U 23068F   23322.71729732  .00001763  00000+0  23584-3 0  9994
2 56715  86.7236  65.7758 0013170 309.2189  50.7862 14.78861778 27071
ONEWEB-0680             
1 56716U 23068G   23323.25001157  .00000014  00000+0  00000+0 0  9991
2 56716  87.7879  71.4322 0012692 333.7142 290.4233 13.48972224 27458
ONEWEB-0681             
1 56717U 23068H   23323.25001157  .00000014  00000+0  00000+0 0  9992
2 56717  87.7494  71.4730 0012572 334.6769  75.0438 13.49763861 27446
ONEWEB-0682             
1 56718U 23068J   23322.57921093  .00000085  00000+0  15720-3 0  9994
2 56718  87.9479  86.6601 0001913 104.0167 256.1184 13.28751293 25648
ONEWEB-0683             
1 56719U 23068K   23322.57356310 -.00022032  00000+0 -48547-1 0  9998
2 56719  87.9424  86.6320 0003186 116.1277 244.0189 13.28336657 26316
ONEWEB-0684             
1 56720U 23068L   23322.77703710  .00000023  00000+0  27961-4 0  9996
2 56720  87.9031  86.6593 0001281 120.0912 240.0346 13.15553959 25477
ONEWEB-0686             
1 56721U 23068M   23322.54741152  .00002245  00000+0  30336-3 0  9991
2 56721  86.7214  65.8175 0012656 312.9481  47.0677 14.78573260 27734
